2026-052A               
1 68198U 26052A   26105.30315019  .00003321  00000+0  20676-3 0  9995
2 68198  97.5351 181.0676 0014476 159.1233 201.0591 15.10193782  4558
YUXING-3 06             
1 68199U 26052B   26105.30038231  .00002613  00000+0  16318-3 0  9995
2 68199  97.5352 181.0708 0013509 160.1665 200.0092 15.10290839  4559
2026-052C               
1 68200U 26052C   26104.43681613  .00001602  00000+0  10149-3 0  9992
2 68200  97.5344 180.2267 0013397 165.6344 194.5269 15.10319790  4419
2026-052D               
1 68201U 26052D   26104.10133715  .00002834  00000+0  17484-3 0  9999
2 68201  97.5381 179.9019 0012992 163.7733 196.3916 15.10673217  4373
2026-052E               
1 68202U 26052E   26104.49875972  .00004948  00000+0  30227-3 0  9998
2 68202  97.5333 180.2966 0011538 164.6917 195.4664 15.10684818  4432
2026-052F               
1 68203U 26052F   26105.28851944  .00003715  00000+0  22636-3 0  9996
2 68203  97.5351 181.0892 0011557 155.7590 204.4186 15.10941689  4554
2026-052G               
1 68204U 26052G   26105.28757025  .00004107  00000+0  24952-3 0  9991
2 68204  97.5356 181.0871 0011113 158.2401 201.9304 15.10990909  4557
2026-052J               
1 68206U 26052J   26105.33232543  .00030584  21223-5  44813-3 0  9994
2 68206  97.3386 179.0065 0532625 274.8541  79.2079 14.70511798  4430
STARLINK-36986          
1 68207U 26053A   26105.25002315 -.02395790  00000+0 -51958-1 0  9996
2 68207  97.2848 341.1753 0001728  93.0909 313.7802 15.47741974  5890
STARLINK-37009          
1 68208U 26053B   26105.25002315 -.02259046  00000+0 -54907-1 0  9997
2 68208  97.2848 341.2060 0002736 100.2201 352.9269 15.44824856  5899
STARLINK-36948          
1 68209U 26053C   26105.25002315 -.02302901  00000+0 -55129-1 0  9994
2 68209  97.2847 341.2127 0002544 103.1779   5.7768 15.44739750  5785
STARLINK-37119          
1 68210U 26053D   26105.25002315 -.02237481  00000+0 -54021-1 0  9996
2 68210  97.2855 341.2149 0002337 100.2186  21.2241 15.44985499  5894
STARLINK-37120          
1 68211U 26053E   26105.25002315 -.02232151  00000+0 -53186-1 0  9997
2 68211  97.2845 341.2198 0002304 106.6765  25.9956 15.45360316  5873
STARLINK-37117          
1 68212U 26053F   26105.25002315 -.02237657  00000+0 -53477-1 0  9997
2 68212  97.2852 341.2268 0002435  99.7993  48.7464 15.45281946  5890
STARLINK-37116          
1 68213U 26053G   26105.25002315 -.02262051  00000+0 -52765-1 0  9993
2 68213  97.2850 341.2298 0002407 117.8231  38.1850 15.46029021  5895
