[{"OBJECT_NAME":"2026-052A","OBJECT_ID":"2026-052A","EPOCH":"2026-04-15T07:16:32.176416","MEAN_MOTION":15.10193782,"ECCENTRICITY":0.00144766,"INCLINATION":97.5351,"RA_OF_ASC_NODE":181.0676,"ARG_OF_PERICENTER":159.1233,"MEAN_ANOMALY":201.0591,"EPHEMERIS_TYPE":0,"CLASSIFICATION_TYPE":"U","NORAD_CAT_ID":68198,"ELEMENT_SET_NO":999,"REV_AT_EPOCH":455,"BSTAR":0.00020675504,"MEAN_MOTION_DOT":3.321e-5,"MEAN_MOTION_DDOT":0},{"OBJECT_NAME":"YUXING-3 06","OBJECT_ID":"2026-052B","EPOCH":"2026-04-15T07:12:33.031584","MEAN_MOTION":15.10290839,"ECCENTRICITY":0.00135094,"INCLINATION":97.5352,"RA_OF_ASC_NODE":181.0708,"ARG_OF_PERICENTER":160.1665,"MEAN_ANOMALY":200.0092,"EPHEMERIS_TYPE":0,"CLASSIFICATION_TYPE":"U","NORAD_CAT_ID":68199,"ELEMENT_SET_NO":999,"REV_AT_EPOCH":455,"BSTAR":0.00016317961,"MEAN_MOTION_DOT":2.613e-5,"MEAN_MOTION_DDOT":0},{"OBJECT_NAME":"2026-052C","OBJECT_ID":"2026-052C","EPOCH":"2026-04-14T10:29:00.913632","MEAN_MOTION":15.1031979,"ECCENTRICITY":0.00133979,"INCLINATION":97.5344,"RA_OF_ASC_NODE":180.2267,"ARG_OF_PERICENTER":165.6344,"MEAN_ANOMALY":194.5269,"EPHEMERIS_TYPE":0,"CLASSIFICATION_TYPE":"U","NORAD_CAT_ID":68200,"ELEMENT_SET_NO":999,"REV_AT_EPOCH":441,"BSTAR":0.00010148999,"MEAN_MOTION_DOT":1.602e-5,"MEAN_MOTION_DDOT":0},{"OBJECT_NAME":"2026-052D","OBJECT_ID":"2026-052D","EPOCH":"2026-04-14T02:25:55.529760","MEAN_MOTION":15.10673217,"ECCENTRICITY":0.00129922,"INCLINATION":97.5381,"RA_OF_ASC_NODE":179.9019,"ARG_OF_PERICENTER":163.7733,"MEAN_ANOMALY":196.3916,"EPHEMERIS_TYPE":0,"CLASSIFICATION_TYPE":"U","NORAD_CAT_ID":68201,"ELEMENT_SET_NO":999,"REV_AT_EPOCH":437,"BSTAR":0.000174838,"MEAN_MOTION_DOT":2.834e-5,"MEAN_MOTION_DDOT":0},{"OBJECT_NAME":"2026-052E","OBJECT_ID":"2026-052E","EPOCH":"2026-04-14T11:58:12.839808","MEAN_MOTION":15.10684818,"ECCENTRICITY":0.0011538,"INCLINATION":97.5333,"RA_OF_ASC_NODE":180.2966,"ARG_OF_PERICENTER":164.6917,"MEAN_ANOMALY":195.4664,"EPHEMERIS_TYPE":0,"CLASSIFICATION_TYPE":"U","NORAD_CAT_ID":68202,"ELEMENT_SET_NO":999,"REV_AT_EPOCH":443,"BSTAR":0.00030226969,"MEAN_MOTION_DOT":4.948e-5,"MEAN_MOTION_DDOT":0},{"OBJECT_NAME":"2026-052F","OBJECT_ID":"2026-052F","EPOCH":"2026-04-15T06:55:28.079616","MEAN_MOTION":15.10941689,"ECCENTRICITY":0.00115571,"INCLINATION":97.5351,"RA_OF_ASC_NODE":181.0892,"ARG_OF_PERICENTER":155.759,"MEAN_ANOMALY":204.4186,"EPHEMERIS_TYPE":0,"CLASSIFICATION_TYPE":"U","NORAD_CAT_ID":68203,"ELEMENT_SET_NO":999,"REV_AT_EPOCH":455,"BSTAR":0.00022636348,"MEAN_MOTION_DOT":3.715e-5,"MEAN_MOTION_DDOT":0},{"OBJECT_NAME":"2026-052G","OBJECT_ID":"2026-052G","EPOCH":"2026-04-15T06:54:06.069600","MEAN_MOTION":15.10990909,"ECCENTRICITY":0.00111137,"INCLINATION":97.5356,"RA_OF_ASC_NODE":181.0871,"ARG_OF_PERICENTER":158.2401,"MEAN_ANOMALY":201.9304,"EPHEMERIS_TYPE":0,"CLASSIFICATION_TYPE":"U","NORAD_CAT_ID":68204,"ELEMENT_SET_NO":999,"REV_AT_EPOCH":455,"BSTAR":0.00024952165,"MEAN_MOTION_DOT":4.107e-5,"MEAN_MOTION_DDOT":0},{"OBJECT_NAME":"2026-052J","OBJECT_ID":"2026-052J","EPOCH":"2026-04-15T07:58:32.917152","MEAN_MOTION":14.70511798,"ECCENTRICITY":0.05326252,"INCLINATION":97.3386,"RA_OF_ASC_NODE":179.0065,"ARG_OF_PERICENTER":274.8541,"MEAN_ANOMALY":79.2079,"EPHEMERIS_TYPE":0,"CLASSIFICATION_TYPE":"U","NORAD_CAT_ID":68206,"ELEMENT_SET_NO":999,"REV_AT_EPOCH":443,"BSTAR":0.00044813366,"MEAN_MOTION_DOT":0.00030584,"MEAN_MOTION_DDOT":2.122323e-6},{"OBJECT_NAME":"STARLINK-36986","OBJECT_ID":"2026-053A","EPOCH":"2026-04-15T06:00:02.000160","MEAN_MOTION":15.47741974,"ECCENTRICITY":0.00017285,"INCLINATION":97.2848,"RA_OF_ASC_NODE":341.1753,"ARG_OF_PERICENTER":93.0909,"MEAN_ANOMALY":313.7802,"EPHEMERIS_TYPE":0,"CLASSIFICATION_TYPE":"U","NORAD_CAT_ID":68207,"ELEMENT_SET_NO":999,"REV_AT_EPOCH":589,"BSTAR":-0.051957539,"MEAN_MOTION_DOT":-0.0239579,"MEAN_MOTION_DDOT":0},{"OBJECT_NAME":"STARLINK-37009","OBJECT_ID":"2026-053B","EPOCH":"2026-04-15T06:00:02.000160","MEAN_MOTION":15.44824856,"ECCENTRICITY":0.00027365,"INCLINATION":97.2848,"RA_OF_ASC_NODE":341.206,"ARG_OF_PERICENTER":100.2201,"MEAN_ANOMALY":352.9269,"EPHEMERIS_TYPE":0,"CLASSIFICATION_TYPE":"U","NORAD_CAT_ID":68208,"ELEMENT_SET_NO":999,"REV_AT_EPOCH":589,"BSTAR":-0.054907298,"MEAN_MOTION_DOT":-0.02259046,"MEAN_MOTION_DDOT":0},{"OBJECT_NAME":"STARLINK-36948","OBJECT_ID":"2026-053C","EPOCH":"2026-04-15T06:00:02.000160","MEAN_MOTION":15.4473975,"ECCENTRICITY":0.0002544,"INCLINATION":97.2847,"RA_OF_ASC_NODE":341.2127,"ARG_OF_PERICENTER":103.1779,"MEAN_ANOMALY":5.7768,"EPHEMERIS_TYPE":0,"CLASSIFICATION_TYPE":"U","NORAD_CAT_ID":68209,"ELEMENT_SET_NO":999,"REV_AT_EPOCH":578,"BSTAR":-0.055129216,"MEAN_MOTION_DOT":-0.02302901,"MEAN_MOTION_DDOT":0},{"OBJECT_NAME":"STARLINK-37119","OBJECT_ID":"2026-053D","EPOCH":"2026-04-15T06:00:02.000160","MEAN_MOTION":15.44985499,"ECCENTRICITY":0.0002337,"INCLINATION":97.2855,"RA_OF_ASC_NODE":341.2149,"ARG_OF_PERICENTER":100.2186,"MEAN_ANOMALY":21.2241,"EPHEMERIS_TYPE":0,"CLASSIFICATION_TYPE":"U","NORAD_CAT_ID":68210,"ELEMENT_SET_NO":999,"REV_AT_EPOCH":589,"BSTAR":-0.054021183,"MEAN_MOTION_DOT":-0.02237481,"MEAN_MOTION_DDOT":0},{"OBJECT_NAME":"STARLINK-37120","OBJECT_ID":"2026-053E","EPOCH":"2026-04-15T06:00:02.000160","MEAN_MOTION":15.45360316,"ECCENTRICITY":0.0002304,"INCLINATION":97.2845,"RA_OF_ASC_NODE":341.2198,"ARG_OF_PERICENTER":106.6765,"MEAN_ANOMALY":25.9956,"EPHEMERIS_TYPE":0,"CLASSIFICATION_TYPE":"U","NORAD_CAT_ID":68211,"ELEMENT_SET_NO":999,"REV_AT_EPOCH":587,"BSTAR":-0.053186441,"MEAN_MOTION_DOT":-0.02232151,"MEAN_MOTION_DDOT":0},{"OBJECT_NAME":"STARLINK-37117","OBJECT_ID":"2026-053F","EPOCH":"2026-04-15T06:00:02.000160","MEAN_MOTION":15.45281946,"ECCENTRICITY":0.00024351,"INCLINATION":97.2852,"RA_OF_ASC_NODE":341.2268,"ARG_OF_PERICENTER":99.7993,"MEAN_ANOMALY":48.7464,"EPHEMERIS_TYPE":0,"CLASSIFICATION_TYPE":"U","NORAD_CAT_ID":68212,"ELEMENT_SET_NO":999,"REV_AT_EPOCH":589,"BSTAR":-0.053476829,"MEAN_MOTION_DOT":-0.02237657,"MEAN_MOTION_DDOT":0},{"OBJECT_NAME":"STARLINK-37116","OBJECT_ID":"2026-053G","EPOCH":"2026-04-15T06:00:02.000160","MEAN_MOTION":15.46029021,"ECCENTRICITY":0.00024077,"INCLINATION":97.285,"RA_OF_ASC_NODE":341.2298,"ARG_OF_PERICENTER":117.8231,"MEAN_ANOMALY":38.185,"EPHEMERIS_TYPE":0,"CLASSIFICATION_TYPE":"U","NORAD_CAT_ID":68213,"ELEMENT_SET_NO":999,"REV_AT_EPOCH":589,"BSTAR":-0.052765221,"MEAN_MOTION_DOT":-0.02262051,"MEAN_MOTION_DDOT":0}]
